NORAD_CAT_ID,OBJECT_NAME,OBJECT_TYPE,EPOCH,MEAN_MOTION,ECCENTRICITY,INCLINATION,RA_OF_ASC_NODE,ARG_OF_PERICENTER,MEAN_ANOMALY,BSTAR,MEAN_MOTION_DOT,MEAN_MOTION_DDOT,TLE_LINE0,TLE_LINE1,TLE_LINE2,SEMIMAJOR_AXIS,PERIOD,APOGEE,PERIGEE,DECAYED
51958.0,STARLINK-3692,PAYLOAD,2023-03-10 04:53:01,15.08042375,0.0002028,53.2125,266.9797,58.3279,301.791,-2.5702e-05,-6.86e-06,0.0,0 STARLINK-3692,1 51958U 22025C   23069.20348667 -.00000686  00000-0 -25702-4 0  9997,2 51958  53.2125 266.9797 0002028  58.3279 301.7910 15.08042375 56906,6920.319,95.488,543.588,540.781,0.0
51958.0,STARLINK-3692,PAYLOAD,2023-03-10 06:28:26,15.08048453,0.0001107,53.2126,266.6821,103.1098,257.0018,7.0927e-05,8.19e-06,0.0,0 STARLINK-3692,1 51958U 22025C   23069.26975692  .00000819  00000-0  70927-4 0  9992,2 51958  53.2126 266.6821 0001107 103.1098 257.0018 15.08048453 56913,6920.301,95.488,542.932,541.4,0.0
51958.0,STARLINK-3692,PAYLOAD,2023-03-10 22:22:48,15.08059472,0.0001232,53.2121,263.7101,97.5262,262.587,0.0020431,0.00031688,0.0,0 STARLINK-3692,1 51958U 22025C   23069.93250862  .00031688  00000-0  20431-2 0  9992,2 51958  53.2121 263.7101 0001232  97.5262 262.5870 15.08059472 55925,6920.267,95.487,542.985,541.28,0.0
51958.0,STARLINK-3692,PAYLOAD,2023-03-11 03:09:07,15.08013969,0.0001253,53.2121,262.8183,74.0788,286.0342,-0.00089178,-0.00014135,0.0,0 STARLINK-3692,1 51958U 22025C   23070.13133958 -.00014135  00000-0 -89178-3 0  9996,2 51958  53.2121 262.8183 0001253  74.0788 286.0342 15.08013969 57042,6920.406,95.49,543.139,541.404,0.0
51958.0,STARLINK-3692,PAYLOAD,2023-03-11 12:41:44,15.08045669,0.0001608,53.2122,261.035,113.5232,246.5929,0.00091008,0.00013916,0.0,0 STARLINK-3692,1 51958U 22025C   23070.52898801  .00013916  00000-0  91008-3 0  9993,2 51958  53.2122 261.0350 0001608 113.5232 246.5929 15.08045669 56017,6920.309,95.488,543.287,541.062,0.0
51958.0,STARLINK-3692,PAYLOAD,2023-03-11 19:03:29,15.0804786,0.0001319,53.2109,259.8471,76.8982,283.2157,0.0014468,0.00022319,0.0,0 STARLINK-3692,1 51958U 22025C   23070.79409143  .00022319  00000-0  14468-2 0  9990,2 51958  53.2109 259.8471 0001319  76.8982 283.2157 15.08047860 57144,6920.303,95.488,543.08,541.255,0.0
51958.0,STARLINK-3692,PAYLOAD,2023-03-11 22:14:22,15.08012262,0.0002498,53.2109,259.2524,69.05,291.0759,-0.00087684,-0.00013904,0.0,0 STARLINK-3692,1 51958U 22025C   23070.92664940 -.00013904  00000-0 -87684-3 0  9996,2 51958  53.2109 259.2524 0002498  69.0500 291.0759 15.08012262 56070,6920.412,95.49,544.005,540.548,0.0
51958.0,STARLINK-3692,PAYLOAD,2023-03-12 07:46:58,15.08052472,0.000116,53.2107,257.4688,95.7688,264.3436,0.001256,0.00019332,0.0,0 STARLINK-3692,1 51958U 22025C   23071.32429102  .00019332  00000-0  12560-2 0  9999,2 51958  53.2107 257.4688 0001160  95.7688 264.3436 15.08052472 57227,6920.289,95.487,542.956,541.351,0.0
51958.0,STARLINK-3692,PAYLOAD,2023-03-12 12:33:17,15.0806172,0.0001155,53.2103,256.5774,85.0143,275.0981,0.0015315,0.00023656,0.0,0 STARLINK-3692,1 51958U 22025C   23071.52311504  .00023656  00000-0  15315-2 0  9992,2 51958  53.2103 256.5774 0001155  85.0143 275.0981 15.08061720 56163,6920.26,95.487,542.925,541.326,0.0
51958.0,STARLINK-3692,PAYLOAD,2023-03-12 22:05:53,15.08074713,0.0001269,53.2099,254.7937,84.7023,275.4114,0.0018242,0.0002826,0.0,0 STARLINK-3692,1 51958U 22025C   23071.92076024  .00028260  00000-0  18242-2 0  9999,2 51958  53.2099 254.7937 0001269  84.7023 275.4114 15.08074713 56222,6920.221,95.486,542.964,541.207,0.0
51958.0,STARLINK-3692,PAYLOAD,2023-03-13 02:52:12,15.08045605,0.0001239,53.2107,253.9025,82.1676,277.9457,-0.00015166,-2.647e-05,0.0,0 STARLINK-3692,1 51958U 22025C   23072.11958743 -.00002647  00000-0 -15166-3 0  9994,2 51958  53.2107 253.9025 0001239  82.1676 277.9457 15.08045605 57343,6920.31,95.488,543.032,541.317,0.0
51958.0,STARLINK-3692,PAYLOAD,2023-03-13 12:24:49,15.08055335,0.0001128,53.2096,252.1189,90.5341,269.578,0.00071412,0.00010856,0.0,0 STARLINK-3692,1 51958U 22025C   23072.51723491  .00010856  00000-0  71412-3 0  9993,2 51958  53.2096 252.1189 0001128  90.5341 269.5780 15.08055335 56314,6920.28,95.487,542.925,541.364,0.0
51958.0,STARLINK-3692,PAYLOAD,2023-03-13 20:21:59,15.08061861,0.000118,53.2093,250.6339,86.0517,274.0609,0.001452,0.00022409,0.0,0 STARLINK-3692,1 51958U 22025C   23072.84860844  .00022409  00000-0  14520-2 0  9996,2 51958  53.2093 250.6339 0001180  86.0517 274.0609 15.08061861 57452,6920.26,95.487,542.941,541.308,0.0
51958.0,STARLINK-3692,PAYLOAD,2023-03-13 21:57:25,15.08065562,0.0001476,53.2098,250.3364,78.8148,281.301,0.0017429,0.00026977,0.0,0 STARLINK-3692,1 51958U 22025C   23072.91488354  .00026977  00000-0  17429-2 0  9991,2 51958  53.2098 250.3364 0001476  78.8148 281.3010 15.08065562 56378,6920.249,95.487,543.135,541.092,0.0
51958.0,STARLINK-3692,PAYLOAD,2023-03-14 12:16:21,15.08058852,0.0001039,53.2088,247.6614,75.5441,284.5666,0.0015525,0.00023984,0.0,0 STARLINK-3692,1 51958U 22025C   23073.51135971  .00023984  00000-0  15525-2 0  9992,2 51958  53.2088 247.6614 0001039  75.5441 284.5666 15.08058852 57556,6920.269,95.487,542.853,541.415,0.0
51958.0,STARLINK-3692,PAYLOAD,2023-03-14 20:13:32,15.08060222,0.0001223,53.2092,246.176,55.322,304.7887,0.0014512,0.00022396,0.0,0 STARLINK-3692,1 51958U 22025C   23073.84273320  .00022396  00000-0  14512-2 0  9990,2 51958  53.2092 246.1760 0001223  55.3220 304.7887 15.08060222 56512,6920.265,95.487,542.976,541.284,0.0
51958.0,STARLINK-3692,PAYLOAD,2023-03-15 04:10:43,15.0805378,0.0001283,53.2084,244.6889,79.1228,280.9909,0.00064166,9.724e-05,0.0,0 STARLINK-3692,1 51958U 22025C   23074.17410926  .00009724  00000-0  64166-3 0  9993,2 51958  53.2084 244.6889 0001283  79.1228 280.9909 15.08053780 57653,6920.285,95.487,543.037,541.262,0.0
51958.0,STARLINK-3692,PAYLOAD,2023-03-15 12:07:53,15.0804976,0.0001264,53.2067,243.2034,86.8252,273.2885,0.00074418,0.00011324,0.0,0 STARLINK-3692,1 51958U 22025C   23074.50548327  .00011324  00000-0  74418-3 0  9997,2 51958  53.2067 243.2034 0001264  86.8252 273.2885 15.08049760 56618,6920.297,95.488,543.037,541.287,0.0
51958.0,STARLINK-3692,PAYLOAD,2023-03-15 21:40:30,15.08073862,0.0001238,53.2053,241.4203,83.5585,276.5548,0.0017094,0.00026457,0.0,0 STARLINK-3692,1 51958U 22025C   23074.90312663  .00026457  00000-0  17094-2 0  9992,2 51958  53.2053 241.4203 0001238  83.5585 276.5548 15.08073862 56673,6920.223,95.486,542.945,541.231,0.0
51958.0,STARLINK-3692,PAYLOAD,2023-03-16 04:02:15,15.08036131,0.0001132,53.205,240.2303,95.9498,264.1623,2.7051e-05,1.36e-06,0.0,0 STARLINK-3692,1 51958U 22025C   23075.16823283  .00000136  00000-0  27051-4 0  9998,2 51958  53.2050 240.2303 0001132  95.9498 264.1623 15.08036131 57802,6920.339,95.488,542.987,541.42,0.0
51958.0,STARLINK-3692,PAYLOAD,2023-03-16 13:34:52,15.08035809,0.000125,53.2034,238.4474,93.9196,266.1939,-4.3705e-05,-9.66e-06,0.0,0 STARLINK-3692,1 51958U 22025C   23075.56588490 -.00000966  00000-0 -43705-4 0  9997,2 51958  53.2034 238.4474 0001250  93.9196 266.1939 15.08035809 56774,6920.34,95.488,543.07,541.34,0.0
51958.0,STARLINK-3692,PAYLOAD,2023-03-16 19:56:37,15.08039711,0.0001252,53.2029,237.2587,98.0703,262.043,0.0014516,0.0002239,0.0,0 STARLINK-3692,1 51958U 22025C   23075.83098735  .00022390  00000-0  14516-2 0  9994,2 51958  53.2029 237.2587 0001252  98.0703 262.0430 15.08039711 56814,6920.328,95.488,543.059,541.326,0.0
51958.0,STARLINK-3692,PAYLOAD,2023-03-16 23:07:33,15.07785345,0.0001795,53.2031,236.6647,95.8876,264.232,-0.011599,-0.00175308,0.0,0 STARLINK-3692,1 51958U 22025C   23075.96358149 -.00175308  00000-0 -11599-1 0  9993,2 51958  53.2031 236.6647 0001795  95.8876 264.2320 15.07785345 57920,6921.106,95.504,544.213,541.729,0.0
51958.0,STARLINK-3692,PAYLOAD,2023-03-17 03:53:48,15.08025073,6.66e-05,53.203,235.7725,112.0247,248.0816,0.00023584,3.387e-05,0.0,0 STARLINK-3692,1 51958U 22025C   23076.16236590  .00003387  00000-0  23584-3 0  9995,2 51958  53.2030 235.7725 0000666 112.0247 248.0816 15.08025073 57955,6920.372,95.489,542.698,541.777,0.0
51958.0,STARLINK-3692,PAYLOAD,2023-03-17 13:26:25,15.08040973,0.0001157,53.2026,233.9896,87.0375,273.0749,0.0014416,0.00022234,0.0,0 STARLINK-3692,1 51958U 22025C   23076.56002064  .00022234  00000-0  14416-2 0  9991,2 51958  53.2026 233.9896 0001157  87.0375 273.0749 15.08040973 56923,6920.324,95.488,542.989,541.388,0.0
51958.0,STARLINK-3692,PAYLOAD,2023-03-17 19:48:10,15.08054695,0.0001047,53.2023,232.7993,82.6229,277.4881,0.002043,0.00031682,0.0,0 STARLINK-3692,1 51958U 22025C   23076.82511899  .00031682  00000-0  20430-2 0  9991,2 51958  53.2023 232.7993 0001047  82.6229 277.4881 15.08054695 58059,6920.282,95.487,542.871,541.422,0.0
51958.0,STARLINK-3692,PAYLOAD,2023-03-17 21:23:36,15.080602,8.99e-05,53.2027,232.5025,67.8134,292.2953,0.0021457,0.00033302,0.0,0 STARLINK-3692,1 51958U 22025C   23076.89139321  .00033302  00000-0  21457-2 0  9995,2 51958  53.2027 232.5025 0000899  67.8134 292.2953 15.08060200 56974,6920.265,95.487,542.752,541.508,0.0
51958.0,STARLINK-3692,PAYLOAD,2023-03-18 03:45:21,15.08049218,0.0001037,53.2021,231.3129,105.3808,254.7299,0.0011896,0.00018291,0.0,0 STARLINK-3692,1 51958U 22025C   23077.15649376  .00018291  00000-0  11896-2 0  9997,2 51958  53.2021 231.3129 0001037 105.3808 254.7299 15.08049218 58100,6920.299,95.488,542.881,541.446,0.0
51958.0,STARLINK-3692,PAYLOAD,2023-03-18 21:15:08,15.0808328,0.0001324,53.2009,228.0434,86.4614,273.6529,0.0020869,0.00032398,0.0,0 STARLINK-3692,1 51958U 22025C   23077.88551090  .00032398  00000-0  20869-2 0  9996,2 51958  53.2009 228.0434 0001324  86.4614 273.6529 15.08083280 57125,6920.194,95.485,542.976,541.143,0.0
51958.0,STARLINK-3692,PAYLOAD,2023-03-19 05:12:19,15.08030521,9.41e-05,53.2014,226.5575,99.8475,260.2623,-0.0016007,-0.00025117,0.0,0 STARLINK-3692,1 51958U 22025C   23078.21688704 -.00025117  00000-0 -16007-2 0  9999,2 51958  53.2014 226.5575 0000941  99.8475 260.2623 15.08030521 58260,6920.356,95.489,542.872,541.57,0.0
